[{"OBJECT_NAME":"FLOCK 4Q-21","OBJECT_ID":"2023-174CB","EPOCH":"2026-03-09T16:54:09.057600","MEAN_MOTION":15.57402591,"ECCENTRICITY":0.00059277,"INCLINATION":97.3918,"RA_OF_ASC_NODE":160.0322,"ARG_OF_PERICENTER":156.3296,"MEAN_ANOMALY":203.8233,"EPHEMERIS_TYPE":0,"CLASSIFICATION_TYPE":"U","NORAD_CAT_ID":58329,"ELEMENT_SET_NO":999,"REV_AT_EPOCH":13049,"BSTAR":0.00065948974,"MEAN_MOTION_DOT":0.00048452,"MEAN_MOTION_DDOT":0},{"OBJECT_NAME":"SITRO-AIS 43","OBJECT_ID":"2024-199W","EPOCH":"2026-03-09T22:49:25.411584","MEAN_MOTION":15.55974297,"ECCENTRICITY":0.00037235,"INCLINATION":97.3093,"RA_OF_ASC_NODE":305.1852,"ARG_OF_PERICENTER":275.7634,"MEAN_ANOMALY":84.3196,"EPHEMERIS_TYPE":0,"CLASSIFICATION_TYPE":"U","NORAD_CAT_ID":61755,"ELEMENT_SET_NO":999,"REV_AT_EPOCH":12230,"BSTAR":0.00088444695,"MEAN_MOTION_DOT":0.00061741,"MEAN_MOTION_DDOT":0}]
